#aV2012  3  4  0  0  0.00000000     288 DD+AD WGS84 FIT  NGA
## 1678      0.00000000   300.00000000 55990 0.0000000000000
+   32     1  2  3  4  5  6  7  8  9 10 11 12 13 14 15 16 17
+         18 19 20 21 22 23 24 25 26 27 28 29 30 31 32  0  0
+          0  0  0  0  0  0  0  0  0  0  0  0  0  0  0  0  0
+          0  0  0  0  0  0  0  0  0  0  0  0  0  0  0  0  0
+          0  0  0  0  0  0  0  0  0  0  0  0  0  0  0  0  0
++         2  2  2  2  2  2  2  2  2  2  2  2  2  2  2  2  2
++         2  2  2  2  2  2  2  2  2  2  2  2  2  2  2  0  0
++         0  0  0  0  0  0  0  0  0  0  0  0  0  0  0  0  0
++         0  0  0  0  0  0  0  0  0  0  0  0  0  0  0  0  0
++         0  0  0  0  0  0  0  0  0  0  0  0  0  0  0  0  0
%c cc cc ccc ccc cccc cccc cccc cccc ccccc ccccc ccccc ccccc
%c cc cc ccc ccc cccc cccc cccc cccc ccccc ccccc ccccc ccccc
%f  0.0000000  0.000000000  0.00000000000  0.000000000000000
%f  0.0000000  0.000000000  0.00000000000  0.000000000000000
%i    0    0    0    0      0      0      0      0         0
%i    0    0    0    0      0      0      0      0         0
/*      NGA, ST. LOUIS,MO.                                  
/*   EPHEMERIS COMPUTED FROM  1 DAYS OF DATA
/*   EPOCHA SMOOTHER  
/* CCCCCCCCCCCCCCCCCCCCCCCCCCCCCCCCCCCCCCCCCCCCCCCCCCCCCCCCC
*  2012  3  4 21 20  0.00000000                                                 
P  1 -19563.473693  -8310.085192  15926.032017    225.829749                    
V  1 -10155.034832 -17613.205084 -21627.026133      0.081128                    
P  2  12867.594006  23149.836408   4413.317780    381.508259                    
V  2  -5601.234187  -2616.769015  30283.666195      0.015257                    
P  3 -12287.744473 -12754.968321 -20326.576130     17.963002                    
V  3  24009.771646  -6469.819307 -10415.499874      0.051027                    
P  4   3741.996577  22345.626339  13347.650287    112.992170                    
V  4 -12580.203994 -12594.279760  24489.899542      0.114767                    
P  5   5995.399367  18208.607176 -18355.362832   -290.028220                    
V  5 -11355.613751  20453.566408  16725.672320     -0.043520                    
P  6  -7616.647118 -14385.861384 -20895.421626     31.644839                    
V  6  26510.191123  -4484.809195  -6253.260545      0.005143                    
P  7 -14125.778755   5482.425803 -21812.307375     61.855748                    
V  7 -15434.896279 -22975.617348   3979.443943      0.029284                    
P  8  -5707.567184  16142.486842 -20062.988284      0.725007                    
V  8 -13575.810710 -21853.070698 -14227.410690      0.001549                    
P  9  19356.033338  12518.863870  12616.297236    142.619482                    
V  9   8366.444856  14788.891576 -26400.150941      0.025195                    
P 10  -8593.577051  24573.918930  -4293.524726    -31.124274                    
V 10  -5467.394082   3134.243165  31048.793441     -0.013734                    
P 11 -23004.446955 -11108.835516   7462.482360   -238.464943                    
V 11  -4839.463246  -9850.738352 -27842.569425     -0.036143                    
P 12  15243.267605   2007.055876  21638.205178     56.007638                    
V 12 -11664.817458  24840.883792   6097.324279      0.021463                    
P 13 -24468.068142   5798.510315  -8830.094235    221.375488                    
V 13 -10952.839525  -1747.661151  29603.529095     -0.021791                    
P 14   8574.716894 -14223.198778  20867.145735    196.002111                    
V 14  26093.574427    137.805826 -10850.959400      0.012632                    
P 15  24509.356076   4266.505850  -9605.423128    -92.321034                    
V 15 -11767.598471   4079.143269 -28026.833631      0.003886                    
P 16  -4445.886572 -18432.755286 -18448.001062   -226.050095                    
V 16  12009.513894 -20278.088724  17654.468241     -0.015494                    
P 17 -11385.320767  14171.727129  19449.636111    144.804170                    
V 17 -24446.154335    -33.546334 -14645.713955     -0.023467                    
P 18  16808.228713 -17314.432519 -10329.766720    184.597308                    
V 18  -2636.430520  14043.442191 -27292.921070      0.018143                    
P 19 -22625.104712  -8179.913883 -11704.472602   -242.221870                    
V 19  14669.039809  -2117.633409 -26584.493998     -0.038069                    
P 20 -17099.456340   2343.689008  20009.575325     63.172639                    
V 20   8682.325297 -24436.858168  10268.422200      0.006998                    
P 21  11919.827377 -10143.491573 -20964.405414   -208.494681                    
V 21  16301.367178  22608.541583  -2220.496125     -0.024985                    
P 22   9348.501324 -24627.058456   3034.332998    143.038471                    
V 22   5118.937224  -1616.054646 -30761.256673     -0.000250                    
P 23 -26660.252290    394.599296   2300.926178    227.263310                    
V 23   2663.942496  -2691.752652  31347.729235     -0.034470                    
P 24   6496.501063 -24777.606119  -6813.122721   -254.891243                    
V 24   5835.149445  -6667.018574  30527.292388      0.004707                    
P 25  17483.426873 -11943.878503  15979.658210     32.023098                    
V 25  -6712.857701  19287.065743  21777.466763      0.002520                    
P 26  13815.608197  12869.177927 -19452.703241   -105.483803                    
V 26 -23207.869523    775.328252 -16123.186980     -0.588871                    
P 27  19357.856106  17267.797901   7374.914071    363.348734                    
V 27   3864.746193   7601.951355 -30126.791624      0.040750                    
P 28 -11617.690272  23739.125743   1070.516714    119.165140                    
V 28  -2508.009782   -528.091656 -32240.528634      0.039356                    
P 29  25195.133812  -5470.729781  -6219.833880    290.629761                    
V 29   8106.786621   2314.065139  30510.470884      0.035557                    
P 30    514.859755 -24441.303760 -10723.699875    -69.476988                    
V 30   6603.966964 -11578.819943  27629.408459     -0.156288                    
P 31  -4144.649271 -22394.617673  13656.549138    215.656920                    
V 31  11087.581689  13103.315147  25453.275409      0.044811                    
P 32 -13373.890757  -7858.011078  21780.008808   -415.991204                    
V 32  13382.604569 -23643.647161    148.199059     -0.050537                    
EOF
